{
  "type": "FeatureCollection",
  "features": [
    {
      "type": "Feature",
      "properties": {
        "norad_id": 37046,
        "name": "FENGYUN 1C DEB",
        "group": "fengyun-1c-debris",
        "lat": -70.607262002351,
        "lon": 29.122667404638836,
        "alt_km": 781.7544740887888,
        "timestamp": "2025-12-15T15:53:20.139570+00:00",
        "meta_object_name": "FENGYUN 1C DEB",
        "meta_object_id": "1999-025EEE",
        "meta_epoch": "2025-12-13T20:24:25.794720",
        "meta_mean_motion": 14.24846266,
        "meta_eccentricity": 0.00488893,
        "meta_inclination": 98.5444,
        "meta_ra_of_asc_node": 2.0767,
        "meta_arg_of_pericenter": 303.8823,
        "meta_mean_anomaly": 55.7711,
        "meta_ephemeris_type": 0,
        "meta_classification_type": "U",
        "meta_norad_cat_id": 37046,
        "meta_element_set_no": 999,
        "meta_rev_at_epoch": 64197,
        "meta_bstar": 0.00095077436,
        "meta_mean_motion_dot": 2.204e-05,
        "meta_mean_motion_ddot": 0,
        "tle_line1": "1 37046U 99025EEE 25347.85029855  .00002204  00000+0  95077-3 0  9996",
        "tle_line2": "2 37046  98.5444   2.0767 0048889 303.8823  55.7711 14.24846266641978"
      },
      "geometry": {
        "type": "Point",
        "coordinates": [
          29.122667404638836,
          -70.607262002351
        ]
      }
    },
    {
      "type": "Feature",
      "properties": {
        "norad_id": 37048,
        "name": "FENGYUN 1C DEB",
        "group": "fengyun-1c-debris",
        "lat": -47.675981254879574,
        "lon": 20.837925433535673,
        "alt_km": 1007.8510747073433,
        "timestamp": "2025-12-15T15:53:20.139579+00:00",
        "meta_object_name": "FENGYUN 1C DEB",
        "meta_object_id": "1999-025EEG",
        "meta_epoch": "2025-12-08T21:18:37.158048",
        "meta_mean_motion": 13.6513296,
        "meta_eccentricity": 0.025318,
        "meta_inclination": 98.885,
        "meta_ra_of_asc_node": 204.5179,
        "meta_arg_of_pericenter": 159.5311,
        "meta_mean_anomaly": 272.4204,
        "meta_ephemeris_type": 0,
        "meta_classification_type": "U",
        "meta_norad_cat_id": 37048,
        "meta_element_set_no": 999,
        "meta_rev_at_epoch": 62117,
        "meta_bstar": 0.00022488,
        "meta_mean_motion_dot": 1.89e-06,
        "meta_mean_motion_ddot": 0,
        "tle_line1": "1 37048U 99025EEG 25342.88793007  .00000189  00000+0  22488-3 0  9999",
        "tle_line2": "2 37048  98.8850 204.5179 0253180 159.5311 272.4204 13.65132960621178"
      },
      "geometry": {
        "type": "Point",
        "coordinates": [
          20.837925433535673,
          -47.675981254879574
        ]
      }
    },
    {
      "type": "Feature",
      "properties": {
        "norad_id": 37054,
        "name": "FENGYUN 1C DEB",
        "group": "fengyun-1c-debris",
        "lat": 81.35260433772135,
        "lon": -109.5627124822307,
        "alt_km": 747.5313972171289,
        "timestamp": "2025-12-15T15:53:20.139588+00:00",
        "meta_object_name": "FENGYUN 1C DEB",
        "meta_object_id": "1999-025EEN",
        "meta_epoch": "2025-12-12T16:25:24.585312",
        "meta_mean_motion": 14.19450678,
        "meta_eccentricity": 0.01011744,
        "meta_inclination": 98.5503,
        "meta_ra_of_asc_node": 329.1465,
        "meta_arg_of_pericenter": 105.4252,
        "meta_mean_anomaly": 255.8127,
        "meta_ephemeris_type": 0,
        "meta_classification_type": "U",
        "meta_norad_cat_id": 37054,
        "meta_element_set_no": 999,
        "meta_rev_at_epoch": 64428,
        "meta_bstar": 0.00039484846,
        "meta_mean_motion_dot": 8.33e-06,
        "meta_mean_motion_ddot": 0,
        "tle_line1": "1 37054U 99025EEN 25346.68431233  .00000833  00000+0  39485-3 0  9999",
        "tle_line2": "2 37054  98.5503 329.1465 0101174 105.4252 255.8127 14.19450678644283"
      },
      "geometry": {
        "type": "Point",
        "coordinates": [
          -109.5627124822307,
          81.35260433772135
        ]
      }
    },
    {
      "type": "Feature",
      "properties": {
        "norad_id": 37056,
        "name": "FENGYUN 1C DEB",
        "group": "fengyun-1c-debris",
        "lat": -64.25677026835893,
        "lon": 172.996684957861,
        "alt_km": 787.7383167147827,
        "timestamp": "2025-12-15T15:53:20.139596+00:00",
        "meta_object_name": "FENGYUN 1C DEB",
        "meta_object_id": "1999-025EEQ",
        "meta_epoch": "2025-12-14T18:54:54.158112",
        "meta_mean_motion": 14.50457792,
        "meta_eccentricity": 0.02688944,
        "meta_inclination": 98.9823,
        "meta_ra_of_asc_node": 11.2125,
        "meta_arg_of_pericenter": 139.7032,
        "meta_mean_anomaly": 222.4434,
        "meta_ephemeris_type": 0,
        "meta_classification_type": "U",
        "meta_norad_cat_id": 37056,
        "meta_element_set_no": 999,
        "meta_rev_at_epoch": 65441,
        "meta_bstar": 0.00028297381,
        "meta_mean_motion_dot": 1.702e-05,
        "meta_mean_motion_ddot": 0,
        "tle_line1": "1 37056U 99025EEQ 25348.78812683  .00001702  00000+0  28297-3 0  9991",
        "tle_line2": "2 37056  98.9823  11.2125 0268894 139.7032 222.4434 14.50457792654411"
      },
      "geometry": {
        "type": "Point",
        "coordinates": [
          172.996684957861,
          -64.25677026835893
        ]
      }
    },
    {
      "type": "Feature",
      "properties": {
        "norad_id": 37057,
        "name": "FENGYUN 1C DEB",
        "group": "fengyun-1c-debris",
        "lat": 31.243802709971412,
        "lon": -170.14886498897974,
        "alt_km": 706.1741919823335,
        "timestamp": "2025-12-15T15:53:20.139605+00:00",
        "meta_object_name": "FENGYUN 1C DEB",
        "meta_object_id": "1999-025EER",
        "meta_epoch": "2025-12-09T18:09:13.045536",
        "meta_mean_motion": 13.96100617,
        "meta_eccentricity": 0.02851594,
        "meta_inclination": 98.9229,
        "meta_ra_of_asc_node": 358.6511,
        "meta_arg_of_pericenter": 147.6005,
        "meta_mean_anomaly": 214.3028,
        "meta_ephemeris_type": 0,
        "meta_classification_type": "U",
        "meta_norad_cat_id": 37057,
        "meta_element_set_no": 999,
        "meta_rev_at_epoch": 63556,
        "meta_bstar": 0.00066354715,
        "meta_mean_motion_dot": 1.241e-05,
        "meta_mean_motion_ddot": 0,
        "tle_line1": "1 37057U 99025EER 25343.75640099  .00001241  00000+0  66355-3 0  9999",
        "tle_line2": "2 37057  98.9229 358.6511 0285159 147.6005 214.3028 13.96100617635564"
      },
      "geometry": {
        "type": "Point",
        "coordinates": [
          -170.14886498897974,
          31.243802709971412
        ]
      }
    },
    {
      "type": "Feature",
      "properties": {
        "norad_id": 37061,
        "name": "FENGYUN 1C DEB",
        "group": "fengyun-1c-debris",
        "lat": -31.89616078271951,
        "lon": 58.44235214539457,
        "alt_km": 679.3829796284308,
        "timestamp": "2025-12-15T15:53:20.139615+00:00",
        "meta_object_name": "FENGYUN 1C DEB",
        "meta_object_id": "1999-025EEV",
        "meta_epoch": "2025-12-14T10:46:55.893792",
        "meta_mean_motion": 13.13545226,
        "meta_eccentricity": 0.08017009,
        "meta_inclination": 98.0852,
        "meta_ra_of_asc_node": 52.431,
        "meta_arg_of_pericenter": 1.338,
        "meta_mean_anomaly": 358.9644,
        "meta_ephemeris_type": 0,
        "meta_classification_type": "U",
        "meta_norad_cat_id": 37061,
        "meta_element_set_no": 999,
        "meta_rev_at_epoch": 8178,
        "meta_bstar": 0.0025129601,
        "meta_mean_motion_dot": 4.866e-05,
        "meta_mean_motion_ddot": 0,
        "tle_line1": "1 37061U 99025EEV 25348.44925803  .00004866  00000+0  25130-2 0  9995",
        "tle_line2": "2 37061  98.0852  52.4310 0801700   1.3380 358.9644 13.13545226 81782"
      },
      "geometry": {
        "type": "Point",
        "coordinates": [
          58.44235214539457,
          -31.89616078271951
        ]
      }
    },
    {
      "type": "Feature",
      "properties": {
        "norad_id": 37064,
        "name": "FENGYUN 1C DEB",
        "group": "fengyun-1c-debris",
        "lat": -55.74784887133137,
        "lon": -51.51840872629928,
        "alt_km": 906.787990123521,
        "timestamp": "2025-12-15T15:53:20.139623+00:00",
        "meta_object_name": "FENGYUN 1C DEB",
        "meta_object_id": "1999-025EEY",
        "meta_epoch": "2025-11-25T16:29:09.460320",
        "meta_mean_motion": 14.15612933,
        "meta_eccentricity": 0.01070067,
        "meta_inclination": 98.9095,
        "meta_ra_of_asc_node": 121.83,
        "meta_arg_of_pericenter": 150.7609,
        "meta_mean_anomaly": 209.9612,
        "meta_ephemeris_type": 0,
        "meta_classification_type": "U",
        "meta_norad_cat_id": 37064,
        "meta_element_set_no": 999,
        "meta_rev_at_epoch": 81294,
        "meta_bstar": 0.0049331234,
        "meta_mean_motion_dot": 0.00010179,
        "meta_mean_motion_ddot": 0,
        "tle_line1": "1 37064U 99025EEY 25329.68691505  .00010179  00000+0  49331-2 0  9995",
        "tle_line2": "2 37064  98.9095 121.8300 0107006 150.7609 209.9612 14.15612933812947"
      },
      "geometry": {
        "type": "Point",
        "coordinates": [
          -51.51840872629928,
          -55.74784887133137
        ]
      }
    }
  ]
}